STARLINK-5348           
1 56515U 23065N   26182.02598972  .00000400  00000+0  24083-4 0  9993
2 56515  43.0045 292.3686 0001956 285.9499  74.1137 15.27578972173932
STARLINK-5342           
1 56516U 23065P   26182.01571234  .00000284  00000+0  19842-4 0  9992
2 56516  43.0035 292.2951 0001351 272.0371  88.0326 15.27580155173931
STARLINK-5345           
1 56517U 23065Q   26182.62603044  .00001236  00000+0  54419-4 0  9992
2 56517  43.0059 289.1220 0001658 271.4067  88.6595 15.27586428174021
STARLINK-5346           
1 56518U 23065R   26182.61831783  .00001257  00000+0  55206-4 0  9993
2 56518  43.0063 289.0718 0001758 275.6819  84.3833 15.27580936174026
STARLINK-6313           
1 56519U 23065S   26182.63245689  .00000997  00000+0  45775-4 0  9990
2 56519  43.0023 289.1675 0002068 276.5195  83.5421 15.27581962174022
STARLINK-6344           
1 56520U 23065T   26182.62217867  .00001784  00000+0  74357-4 0  9991
2 56520  43.0034 289.0990 0001520 274.2934  85.7744 15.27573140174024
STARLINK-6333           
1 56521U 23065U   26182.04605855 -.00000142  00000+0  43945-5 0  9994
2 56521  43.0064 295.9115 0001870 289.0483  71.0166 15.27577352173893
STARLINK-6327           
1 56522U 23065V   26182.62859462 -.00009009  00000+0 -31781-3 0  9999
2 56522  43.0018 289.1383 0001414 262.8699  97.1992 15.27622913174023
STARLINK-6328           
1 56523U 23065W   26182.65044911  .00000534  00000+0  28941-4 0  9995
2 56523  43.0005 289.3042 0001248 264.3461  95.7248 15.27576499174028
STARLINK-6323           
1 56524U 23065X   26181.72861774  .00000570  00000+0  30223-4 0  9993
2 56524  43.0003 294.4298 0001090 271.3916  88.6811 15.27569446173889
STARLINK-6329           
1 56525U 23065Y   26181.69300991  .00000488  00000+0  27876-4 0  9997
2 56525  43.0004 305.2295 0001350 271.9813  88.0884 15.26743715173752
STARLINK-6317           
1 56526U 23065Z   26181.99401340  .00000236  00000+0  18096-4 0  9996
2 56526  43.0049 292.9771 0001442 271.4993  88.5693 15.27581940173922
STARLINK-6335           
1 56527U 23065AA  26182.04734260  .00000703  00000+0  35083-4 0  9998
2 56527  43.0043 295.9170 0001575 277.5952  82.4720 15.27584471173894
STARLINK-6337           
1 56528U 23065AB  26182.62810256  .00001791  00000+0  74594-4 0  9991
2 56528  43.0076 292.5371 0001627 270.9881  89.0784 15.27582145173982
STARLINK-6307           
1 56529U 23065AC  26181.98502899  .00000489  00000+0  27294-4 0  9999
2 56529  43.0013 281.6142 0001370 282.8272  77.2426 15.27579319174050
STARLINK-6318           
1 56530U 23065AD  26182.59456406  .00000659  00000+0  33478-4 0  9991
2 56530  43.0015 263.7175 0001237 273.1343  86.9367 15.27578203174316
STARLINK-6280           
1 56531U 23065AE  26181.74709316 -.00011869  00000+0 -42164-3 0  9997
2 56531  43.0020 279.8521 0002778 255.8568 104.1975 15.27640082174057
STARLINK-6319           
1 56532U 23065AF  26182.58942070  .00002170  00000+0  88336-4 0  9992
2 56532  43.0033 274.9901 0001739 269.3047  90.7606 15.27588124174181
STARLINK-6310           
1 56533U 23065AG  26181.98681149 -.00000184  00000+0  28526-5 0  9993
2 56533  43.0011 278.2160 0001540 295.1034  64.9658 15.27573401174097
STARLINK-6308           
1 56534U 23065AH  26182.59327127  .00001060  00000+0  48041-4 0  9991
2 56534  43.0024 275.0248 0001649 273.4876  86.5787 15.27579049174184
STARLINK-6309           
1 56535U 23065AJ  26182.05232811  .00000155  00000+0  15163-4 0  9991
2 56535  43.0037 306.4328 0001283 289.9967  70.0746 15.27577999173773
STARLINK-6312           
1 56536U 23065AK  26182.06646148  .00000152  00000+0  15078-4 0  9997
2 56536  43.0050 306.5401 0001813 270.5575  89.5069 15.27576393173772
STARLINK-6311           
1 56537U 23065AL  26182.05618493 -.00000202  00000+0  21808-5 0  9995
2 56537  43.0039 306.4622 0001239 285.5557  74.5158 15.27575164173770
STARLINK-6314           
1 56538U 23065AM  26181.72911811 -.00000292  00000+0 -10747-5 0  9999
2 56538  43.0034 279.7182 0001873 282.3282  77.7360 15.27573038174053
STARLINK-6135           
1 56539U 23065AN  26181.74724106  .00000917  00000+0  42854-4 0  9996
2 56539  43.0055 308.4411 0001771 275.8524  84.2126 15.27577176173728
STARLINK-6136           
1 56540U 23065AP  26181.75109697  .00000859  00000+0  40733-4 0  9990
2 56540  43.0036 308.4689 0001847 269.0966  90.9674 15.27575578173721
STARLINK-6249           
1 56541U 23065AQ  26182.03369152  .00000492  00000+0  27418-4 0  9995
2 56541  43.0024 303.7373 0001369 274.3869  85.6827 15.27583959173809
STARLINK-6266           
1 56542U 23065AR  26181.80877642 -.00000822  00000+0 -20342-4 0  9996
2 56542  43.0030 308.0393 0001337 277.0897  82.9802 15.27571221173737
STARLINK-6226           
1 56544U 23065AT  26182.05154138 -.00000517  00000+0 -92628-5 0  9992
2 56544  43.0050 303.0236 0001266 275.9926  84.0781 15.27575049173813
STARLINK-6086           
1 56545U 23065AU  26181.82597183  .00000354  00000+0  22382-4 0  9994
2 56545  43.0022 304.7620 0001383 270.8254  89.2439 15.27578457173774
