OBJECT_NAME,OBJECT_ID,EPOCH,MEAN_MOTION,ECCENTRICITY,INCLINATION,RA_OF_ASC_NODE,ARG_OF_PERICENTER,MEAN_ANOMALY,EPHEMERIS_TYPE,CLASSIFICATION_TYPE,NORAD_CAT_ID,ELEMENT_SET_NO,REV_AT_EPOCH,BSTAR,MEAN_MOTION_DOT,MEAN_MOTION_DDOT
STARLINK-5348,2023-065N,2026-07-01T00:37:25.511808,15.27578972,.00019565,43.0045,292.3686,285.9499,74.1137,0,U,56515,999,17393,.24083324E-4,.4E-5,0
STARLINK-5342,2023-065P,2026-07-01T00:22:37.546176,15.27580155,.00013516,43.0035,292.2951,272.0371,88.0326,0,U,56516,999,17393,.19841604E-4,.284E-5,0
STARLINK-5345,2023-065Q,2026-07-01T15:01:29.030016,15.27586428,.00016581,43.0059,289.1220,271.4067,88.6595,0,U,56517,999,17402,.54419182E-4,.1236E-4,0
STARLINK-5346,2023-065R,2026-07-01T14:50:22.660512,15.27580936,.00017584,43.0063,289.0718,275.6819,84.3833,0,U,56518,999,17402,.55206199E-4,.1257E-4,0
STARLINK-6313,2023-065S,2026-07-01T15:10:44.275296,15.27581962,.00020684,43.0023,289.1675,276.5195,83.5421,0,U,56519,999,17402,.45775412E-4,.997E-5,0
STARLINK-6344,2023-065T,2026-07-01T14:55:56.237088,15.27573140,.00015203,43.0034,289.0990,274.2934,85.7744,0,U,56520,999,17402,.74356938E-4,.1784E-4,0
STARLINK-6333,2023-065U,2026-07-01T01:06:19.458720,15.27577352,.00018707,43.0064,295.9115,289.0483,71.0166,0,U,56521,999,17389,.4394543E-5,-.142E-5,0
STARLINK-6327,2023-065V,2026-07-01T15:05:10.575168,15.27622913,.00014147,43.0018,289.1383,262.8699,97.1992,0,U,56522,999,17402,-.31780992E-3,-.9009E-4,0
STARLINK-6328,2023-065W,2026-07-01T15:36:38.803104,15.27576499,.00012489,43.0005,289.3042,264.3461,95.7248,0,U,56523,999,17402,.28941385E-4,.534E-5,0
STARLINK-6323,2023-065X,2026-06-30T17:29:12.572736,15.27569446,.00010901,43.0003,294.4298,271.3916,88.6811,0,U,56524,999,17388,.30222659E-4,.57E-5,0
STARLINK-6329,2023-065Y,2026-06-30T16:37:56.056224,15.26743715,.00013502,43.0004,305.2295,271.9813,88.0884,0,U,56525,999,17375,.27875573E-4,.488E-5,0
STARLINK-6317,2023-065Z,2026-06-30T23:51:22.757760,15.27581940,.00014429,43.0049,292.9771,271.4993,88.5693,0,U,56526,999,17392,.18095674E-4,.236E-5,0
STARLINK-6335,2023-065AA,2026-07-01T01:08:10.400640,15.27584471,.00015756,43.0043,295.9170,277.5952,82.4720,0,U,56527,999,17389,.35083209E-4,.703E-5,0
STARLINK-6337,2023-065AB,2026-07-01T15:04:28.061184,15.27582145,.00016273,43.0076,292.5371,270.9881,89.0784,0,U,56528,999,17398,.74594305E-4,.1791E-4,0
STARLINK-6307,2023-065AC,2026-06-30T23:38:26.504736,15.27579319,.00013702,43.0013,281.6142,282.8272,77.2426,0,U,56529,999,17405,.27294315E-4,.489E-5,0
STARLINK-6318,2023-065AD,2026-07-01T14:16:10.334784,15.27578203,.00012376,43.0015,263.7175,273.1343,86.9367,0,U,56530,999,17431,.33478341E-4,.659E-5,0
STARLINK-6280,2023-065AE,2026-06-30T17:55:48.849024,15.27640082,.00027783,43.0020,279.8521,255.8568,104.1975,0,U,56531,999,17405,-.42163632E-3,-.11869E-3,0
STARLINK-6319,2023-065AF,2026-07-01T14:08:45.948480,15.27588124,.00017392,43.0033,274.9901,269.3047,90.7606,0,U,56532,999,17418,.88335919E-4,.217E-4,0
STARLINK-6310,2023-065AG,2026-06-30T23:41:00.512736,15.27573401,.00015408,43.0011,278.2160,295.1034,64.9658,0,U,56533,999,17409,.2852641E-5,-.184E-5,0
STARLINK-6308,2023-065AH,2026-07-01T14:14:18.637728,15.27579049,.00016492,43.0024,275.0248,273.4876,86.5787,0,U,56534,999,17418,.48040938E-4,.106E-4,0
STARLINK-6309,2023-065AJ,2026-07-01T01:15:21.148704,15.27577999,.00012834,43.0037,306.4328,289.9967,70.0746,0,U,56535,999,17377,.15163437E-4,.155E-5,0
STARLINK-6312,2023-065AK,2026-07-01T01:35:42.271872,15.27576393,.00018131,43.0050,306.5401,270.5575,89.5069,0,U,56536,999,17377,.15077553E-4,.152E-5,0
STARLINK-6311,2023-065AL,2026-07-01T01:20:54.377952,15.27575164,.00012394,43.0039,306.4622,285.5557,74.5158,0,U,56537,999,17377,.2180837E-5,-.202E-5,0
STARLINK-6314,2023-065AM,2026-06-30T17:29:55.804704,15.27573038,.00018731,43.0034,279.7182,282.3282,77.7360,0,U,56538,999,17405,-.1074704E-5,-.292E-5,0
STARLINK-6135,2023-065AN,2026-06-30T17:56:01.627584,15.27577176,.00017718,43.0055,308.4411,275.8524,84.2126,0,U,56539,999,17372,.4285422E-4,.917E-5,0
STARLINK-6136,2023-065AP,2026-06-30T18:01:34.778208,15.27575578,.00018479,43.0036,308.4689,269.0966,90.9674,0,U,56540,999,17372,.40732766E-4,.859E-5,0
STARLINK-6249,2023-065AQ,2026-07-01T00:48:30.947328,15.27583959,.00013693,43.0024,303.7373,274.3869,85.6827,0,U,56541,999,17380,.27418112E-4,.492E-5,0
STARLINK-6266,2023-065AR,2026-06-30T19:24:38.282688,15.27571221,.0001337,43.0030,308.0393,277.0897,82.9802,0,U,56542,999,17373,-.20342E-4,-.822E-5,0
STARLINK-6226,2023-065AT,2026-07-01T01:14:13.175232,15.27575049,.00012668,43.0050,303.0236,275.9926,84.0781,0,U,56544,999,17381,-.926278E-5,-.517E-5,0
STARLINK-6086,2023-065AU,2026-06-30T19:49:23.966112,15.27578457,.0001383,43.0022,304.7620,270.8254,89.2439,0,U,56545,999,17377,.22382E-4,.354E-5,0
